{"type": "FeatureCollection", "features": [ {"type": "Feature", "properties": {"norad_id": 34400, "name": "COSMOS 2251 DEB", "group": "cosmos-2251-debris", "lat": -6.231080266455635, "lon": -143.20850458458045, "alt_km": 417.37146954657874, "timestamp": "2025-12-07T11:27:50.401332+00:00", "meta": {"OBJECT_NAME": "COSMOS 2251 DEB", "OBJECT_ID": "1993-036QR", "EPOCH": "2025-12-05T13:44:34.644480", "MEAN_MOTION": 15.49622248, "ECCENTRICITY": 0.00071481, "INCLINATION": 73.9681, "RA_OF_ASC_NODE": 39.1879, "ARG_OF_PERICENTER": 270.2608, "MEAN_ANOMALY": 89.7786, "EPHEMERIS_TYPE": 0, "CLASSIFICATION_TYPE": "U", "NORAD_CAT_ID": 34400, "ELEMENT_SET_NO": 999, "REV_AT_EPOCH": 89863, "BSTAR": 0.0048528549, "MEAN_MOTION_DOT": 0.0027849, "MEAN_MOTION_DDOT": 0}, "tle": {"line1": "1 34400U 93036QR  25339.57262320  .00278490  00000+0  48529-2 0  9990", "line2": "2 34400  73.9681  39.1879 0007148 270.2608  89.7786 15.49622248898631"}}, "geometry": {"type": "Point", "coordinates": [-143.20850458458045, -6.231080266455635]}}, {"type": "Feature", "properties": {"norad_id": 34409, "name": "COSMOS 2251 DEB", "group": "cosmos-2251-debris", "lat": 65.56294663198597, "lon": -4.202709701104502, "alt_km": 648.7134178490742, "timestamp": "2025-12-07T11:27:50.401342+00:00", "meta": {"OBJECT_NAME": "COSMOS 2251 DEB", "OBJECT_ID": "1993-036RA", "EPOCH": "2025-12-06T16:11:55.118400", "MEAN_MOTION": 14.58004285, "ECCENTRICITY": 0.00795821, "INCLINATION": 74.0628, "RA_OF_ASC_NODE": 318.3561, "ARG_OF_PERICENTER": 34.3278, "MEAN_ANOMALY": 144.7576, "EPHEMERIS_TYPE": 0, "CLASSIFICATION_TYPE": "U", "NORAD_CAT_ID": 34409, "ELEMENT_SET_NO": 999, "REV_AT_EPOCH": 89104, "BSTAR": 0.00045142763, "MEAN_MOTION_DOT": 2.136e-05, "MEAN_MOTION_DDOT": 0}, "tle": {"line1": "1 34409U 93036RA  25340.67494350  .00002136  00000+0  45143-3 0  9994", "line2": "2 34409  74.0628 318.3561 0079582  34.3278 144.7576 14.58004285891047"}}, "geometry": {"type": "Point", "coordinates": [-4.202709701104502, 65.56294663198597]}}, {"type": "Feature", "properties": {"norad_id": 34410, "name": "COSMOS 2251 DEB", "group": "cosmos-2251-debris", "lat": 41.209680094757246, "lon": -72.24469311020556, "alt_km": 503.08477494556064, "timestamp": "2025-12-07T11:27:50.401353+00:00", "meta": {"OBJECT_NAME": "COSMOS 2251 DEB", "OBJECT_ID": "1993-036RB", "EPOCH": "2025-12-06T16:37:24.236832", "MEAN_MOTION": 15.18051629, "ECCENTRICITY": 0.0020885, "INCLINATION": 73.74, "RA_OF_ASC_NODE": 274.616, "ARG_OF_PERICENTER": 116.6169, "MEAN_ANOMALY": 318.5036, "EPHEMERIS_TYPE": 0, "CLASSIFICATION_TYPE": "U", "NORAD_CAT_ID": 34410, "ELEMENT_SET_NO": 999, "REV_AT_EPOCH": 89682, "BSTAR": 0.0041987337, "MEAN_MOTION_DOT": 0.00087001, "MEAN_MOTION_DDOT": 0}, "tle": {"line1": "1 34410U 93036RB  25340.69264163  .00087001  00000+0  41987-2 0  9990", "line2": "2 34410  73.7400 274.6160 0020885 116.6169 318.5036 15.18051629896821"}}, "geometry": {"type": "Point", "coordinates": [-72.24469311020556, 41.209680094757246]}}, {"type": "Feature", "properties": {"norad_id": 34412, "name": "COSMOS 2251 DEB", "group": "cosmos-2251-debris", "lat": 48.273876634050595, "lon": 135.66977838779442, "alt_km": 658.5480901050078, "timestamp": "2025-12-07T11:27:50.401364+00:00", "meta": {"OBJECT_NAME": "COSMOS 2251 DEB", "OBJECT_ID": "1993-036RD", "EPOCH": "2025-12-06T09:59:58.204032", "MEAN_MOTION": 14.47037573, "ECCENTRICITY": 0.01871167, "INCLINATION": 73.948, "RA_OF_ASC_NODE": 336.4995, "ARG_OF_PERICENTER": 73.0764, "MEAN_ANOMALY": 289.0813, "EPHEMERIS_TYPE": 0, "CLASSIFICATION_TYPE": "U", "NORAD_CAT_ID": 34412, "ELEMENT_SET_NO": 999, "REV_AT_EPOCH": 87559, "BSTAR": 0.0017188364, "MEAN_MOTION_DOT": 7.771e-05, "MEAN_MOTION_DDOT": 0}, "tle": {"line1": "1 34412U 93036RD  25340.41664588  .00007771  00000+0  17188-2 0  9999", "line2": "2 34412  73.9480 336.4995 0187116  73.0764 289.0813 14.47037573875593"}}, "geometry": {"type": "Point", "coordinates": [135.66977838779442, 48.273876634050595]}}, {"type": "Feature", "properties": {"norad_id": 34413, "name": "COSMOS 2251 DEB", "group": "cosmos-2251-debris", "lat": -55.69727290713864, "lon": 119.24899535532501, "alt_km": 826.2638524109425, "timestamp": "2025-12-07T11:27:50.401374+00:00", "meta": {"OBJECT_NAME": "COSMOS 2251 DEB", "OBJECT_ID": "1993-036RE", "EPOCH": "2025-12-06T21:09:50.486976", "MEAN_MOTION": 14.29023514, "ECCENTRICITY": 0.0090778, "INCLINATION": 74.0324, "RA_OF_ASC_NODE": 275.5159, "ARG_OF_PERICENTER": 353.0768, "MEAN_ANOMALY": 63.0194, "EPHEMERIS_TYPE": 0, "CLASSIFICATION_TYPE": "U", "NORAD_CAT_ID": 34413, "ELEMENT_SET_NO": 999, "REV_AT_EPOCH": 87047, "BSTAR": 0.003115714, "MEAN_MOTION_DOT": 8.227e-05, "MEAN_MOTION_DDOT": 0}, "tle": {"line1": "1 34413U 93036RE  25340.88183434  .00008227  00000+0  31157-2 0  9996", "line2": "2 34413  74.0324 275.5159 0090778 353.0768  63.0194 14.29023514870474"}}, "geometry": {"type": "Point", "coordinates": [119.24899535532501, -55.69727290713864]}}, {"type": "Feature", "properties": {"norad_id": 34420, "name": "COSMOS 2251 DEB", "group": "cosmos-2251-debris", "lat": -45.6888480539046, "lon": 97.08352615864956, "alt_km": 653.3882344405356, "timestamp": "2025-12-07T11:27:50.401384+00:00", "meta": {"OBJECT_NAME": "COSMOS 2251 DEB", "OBJECT_ID": "1993-036RM", "EPOCH": "2025-12-06T16:07:47.863200", "MEAN_MOTION": 14.68268722, "ECCENTRICITY": 0.01068972, "INCLINATION": 74.0333, "RA_OF_ASC_NODE": 115.6952, "ARG_OF_PERICENTER": 238.2431, "MEAN_ANOMALY": 136.1808, "EPHEMERIS_TYPE": 0, "CLASSIFICATION_TYPE": "U", "NORAD_CAT_ID": 34420, "ELEMENT_SET_NO": 999, "REV_AT_EPOCH": 89681, "BSTAR": 0.00045397197, "MEAN_MOTION_DOT": 2.82e-05, "MEAN_MOTION_DDOT": 0}, "tle": {"line1": "1 34420U 93036RM  25340.67208175  .00002820  00000+0  45397-3 0  9996", "line2": "2 34420  74.0333 115.6952 0106897 238.2431 136.1808 14.68268722896813"}}, "geometry": {"type": "Point", "coordinates": [97.08352615864956, -45.6888480539046]}}, {"type": "Feature", "properties": {"norad_id": 34425, "name": "COSMOS 2251 DEB", "group": "cosmos-2251-debris", "lat": 23.915166549766543, "lon": -122.6976731340105, "alt_km": 671.3751385469441, "timestamp": "2025-12-07T11:27:50.401394+00:00", "meta": {"OBJECT_NAME": "COSMOS 2251 DEB", "OBJECT_ID": "1993-036RS", "EPOCH": "2025-12-06T16:41:33.499104", "MEAN_MOTION": 14.62073813, "ECCENTRICITY": 0.00252512, "INCLINATION": 74.0207, "RA_OF_ASC_NODE": 66.1008, "ARG_OF_PERICENTER": 194.098, "MEAN_ANOMALY": 165.9485, "EPHEMERIS_TYPE": 0, "CLASSIFICATION_TYPE": "U", "NORAD_CAT_ID": 34425, "ELEMENT_SET_NO": 999, "REV_AT_EPOCH": 88652, "BSTAR": 0.0011200632, "MEAN_MOTION_DOT": 5.625e-05, "MEAN_MOTION_DDOT": 0}, "tle": {"line1": "1 34425U 93036RS  25340.69552661  .00005625  00000+0  11201-2 0  9997", "line2": "2 34425  74.0207  66.1008 0025251 194.0980 165.9485 14.62073813886529"}}, "geometry": {"type": "Point", "coordinates": [-122.6976731340105, 23.915166549766543]}}, {"type": "Feature", "properties": {"norad_id": 34429, "name": "COSMOS 2251 DEB", "group": "cosmos-2251-debris", "lat": 5.7177197505979755, "lon": -2.2158915087095052, "alt_km": 454.428161982617, "timestamp": "2025-12-07T11:27:50.401404+00:00", "meta": {"OBJECT_NAME": "COSMOS 2251 DEB", "OBJECT_ID": "1993-036RW", "EPOCH": "2025-12-06T16:17:52.609632", "MEAN_MOTION": 15.38592513, "ECCENTRICITY": 0.00057758, "INCLINATION": 73.9708, "RA_OF_ASC_NODE": 181.1623, "ARG_OF_PERICENTER": 26.9307, "MEAN_ANOMALY": 44.9991, "EPHEMERIS_TYPE": 0, "CLASSIFICATION_TYPE": "U", "NORAD_CAT_ID": 34429, "ELEMENT_SET_NO": 999, "REV_AT_EPOCH": 89355, "BSTAR": 0.0067776392, "MEAN_MOTION_DOT": 0.00267764, "MEAN_MOTION_DDOT": 0}, "tle": {"line1": "1 34429U 93036RW  25340.67908113  .00267764  00000+0  67776-2 0  9998", "line2": "2 34429  73.9708 181.1623 0005775  26.9307  44.9991 15.38592513893559"}}, "geometry": {"type": "Point", "coordinates": [-2.2158915087095052, 5.7177197505979755]}}, {"type": "Feature", "properties": {"norad_id": 34430, "name": "COSMOS 2251 DEB", "group": "cosmos-2251-debris", "lat": 1.7625648746385412, "lon": -46.42459248423579, "alt_km": 722.3955416767285, "timestamp": "2025-12-07T11:27:50.401415+00:00", "meta": {"OBJECT_NAME": "COSMOS 2251 DEB", "OBJECT_ID": "1993-036RX", "EPOCH": "2025-12-06T15:26:31.613280", "MEAN_MOTION": 14.39602296, "ECCENTRICITY": 0.00600849, "INCLINATION": 74.0519, "RA_OF_ASC_NODE": 314.6097, "ARG_OF_PERICENTER": 25.772, "MEAN_ANOMALY": 334.6406, "EPHEMERIS_TYPE": 0, "CLASSIFICATION_TYPE": "U", "NORAD_CAT_ID": 34430, "ELEMENT_SET_NO": 999, "REV_AT_EPOCH": 87867, "BSTAR": 0.0009360208, "MEAN_MOTION_DOT": 2.962e-05, "MEAN_MOTION_DDOT": 0}, "tle": {"line1": "1 34430U 93036RX  25340.64342145  .00002962  00000+0  93602-3 0  9999", "line2": "2 34430  74.0519 314.6097 0060084  25.7720 334.6406 14.39602296878677"}}, "geometry": {"type": "Point", "coordinates": [-46.42459248423579, 1.7625648746385412]}}, {"type": "Feature", "properties": {"norad_id": 34431, "name": "COSMOS 2251 DEB", "group": "cosmos-2251-debris", "lat": 65.5022812695867, "lon": -34.07387541418883, "alt_km": 766.6187716987815, "timestamp": "2025-12-07T11:27:50.401425+00:00", "meta": {"OBJECT_NAME": "COSMOS 2251 DEB", "OBJECT_ID": "1993-036RY", "EPOCH": "2025-12-06T23:11:25.841184", "MEAN_MOTION": 14.28747235, "ECCENTRICITY": 0.00685268, "INCLINATION": 74.0746, "RA_OF_ASC_NODE": 185.6499, "ARG_OF_PERICENTER": 172.9199, "MEAN_ANOMALY": 187.2936, "EPHEMERIS_TYPE": 0, "CLASSIFICATION_TYPE": "U", "NORAD_CAT_ID": 34431, "ELEMENT_SET_NO": 999, "REV_AT_EPOCH": 87060, "BSTAR": 0.00098345369, "MEAN_MOTION_DOT": 2.514e-05, "MEAN_MOTION_DDOT": 0}, "tle": {"line1": "1 34431U 93036RY  25340.96627131  .00002514  00000+0  98345-3 0  9998", "line2": "2 34431  74.0746 185.6499 0068526 172.9199 187.2936 14.28747235870602"}}, "geometry": {"type": "Point", "coordinates": [-34.07387541418883, 65.5022812695867]}}]}